ONEWEB-0086             
1 45456U 20020AJ  23325.39569898 -.00000454  00000+0 -13163-2 0  9990
2 45456  87.9000 207.5888 0001495  57.0860 303.0412 13.11414277179565
ONEWEB-0088             
1 45457U 20020AK  23325.44928508  .00000354  00000+0  96299-3 0  9993
2 45457  87.8985 207.5568 0001630  70.6067 289.5237 13.11414588179505
ONEWEB-0102             
1 47258U 20100A   23325.57980757  .00000513  00000+0  13963-2 0  9994
2 47258  87.9018 177.3543 0001713  88.9114 271.2211 13.12194769141616
ONEWEB-0109             
1 47259U 20100B   23325.28324954  .00000353  00000+0  94374-3 0  9992
2 47259  87.9016 177.3782 0001543  83.1026 277.0278 13.12688187141406
ONEWEB-0110             
1 47260U 20100C   23325.53564507 -.00000263  00000+0 -76552-3 0  9992
2 47260  87.9016 177.3429 0001318  86.5859 273.5420 13.12588988141607
ONEWEB-0111             
1 47261U 20100D   23325.56876449  .00000200  00000+0  52221-3 0  9993
2 47261  87.9013 177.3245 0001438  86.8331 273.2962 13.12292602141447
ONEWEB-0114             
1 47262U 20100E   23325.52292311  .00000130  00000+0  32477-3 0  9993
2 47262  87.9015 177.3559 0001720 101.9020 258.2302 13.12586366141394
ONEWEB-0117             
1 47263U 20100F   23325.51490582  .00000323  00000+0  86164-3 0  9999
2 47263  87.8953 177.3345 0001486  82.1010 278.0287 13.12493393141407
